#aV2006  2 17  0  0   .00000000      96 DD+AD WGS84 FIT  NGA
## 1362 432000.00000000   900.00000000 53783  .0000000000000
+   29     1  2  3  4  5  6  7  8  9 10 11 13 14 15 16 17 18
+         19 20 21 22 23 24 25 26 27 28 29 30  0  0  0  0  0
+          0  0  0  0  0  0  0  0  0  0  0  0  0  0  0  0  0
+          0  0  0  0  0  0  0  0  0  0  0  0  0  0  0  0  0
+          0  0  0  0  0  0  0  0  0  0  0  0  0  0  0  0  0
++         0  0  0  0  0  0  0  0  0  0  0  0  0  0  0  0  0
++         0  0  0  0  0  0  0  0  0  0  0  0  0  0  0  0  0
++         0  0  0  0  0  0  0  0  0  0  0  0  0  0  0  0  0
++         0  0  0  0  0  0  0  0  0  0  0  0  0  0  0  0  0
++         0  0  0  0  0  0  0  0  0  0  0  0  0  0  0  0  0
%c cc cc ccc ccc cccc cccc cccc cccc ccccc ccccc ccccc ccccc
%c cc cc ccc ccc cccc cccc cccc cccc ccccc ccccc ccccc ccccc
%f  0.0000000  0.000000000  0.00000000000  0.000000000000000
%f  0.0000000  0.000000000  0.00000000000  0.000000000000000
%i    0    0    0    0      0      0      0      0         0
%i    0    0    0    0      0      0      0      0         0
/*      NGA, ST. LOUIS,MO.                                  
/*   EPHEMERIS COMPUTED FROM  3 DAYS OF DATA                
/* CCCCCCCCCCCCCCCCCCCCCCCCCCCCCCCCCCCCCCCCCCCCCCCCCCCCCCCCC
/* CCCCCCCCCCCCCCCCCCCCCCCCCCCCCCCCCCCCCCCCCCCCCCCCCCCCCCCCC
*  2006  2 17 15 15   .00000000                                                 
P  1  14826.901853  14694.158961  16646.636649     37.185019                    
V  1 -20439.805987  -3421.611660  21443.334000       .019976                    
P  2 -12888.569911 -22427.769147  -6692.829183    -18.151133                    
V  2    -43.254536  -8579.731596  29894.463557       .014994                    
P  3  20126.774644  11869.113857 -13063.386677     75.495500                    
V  3 -16502.021618   1197.010063 -24340.072444       .029222                    
P  4  -5556.854699 -25503.452021   3708.286342    152.156222                    
V  4   4729.183411   3510.393161  31286.274756       .117136                    
P  5 -19905.412793   8387.401203  15151.650705   -538.191449                    
V  5   9498.502092 -17477.228601  22040.221903       .892893                    
P  6 -20108.382848   8176.348498 -15167.241193    332.929392                    
V  6 -18996.992174  -5619.123754  21802.605755       .342342                    
P  7 -24917.824839  -7745.643384   6012.916661    497.407181                    
V  7   7489.333931  -2275.386676  29812.942449       .079802                    
P  8   1426.327465 -23518.266701 -11998.708684    -56.924214                    
V  8   6619.890127  13810.303555 -26996.444990      -.012049                    
P  9 -16696.631895  -4935.044498  19607.441612      8.207648                    
V  9  -8405.499860 -24627.743416 -12721.216935       .015875                    
P 10 -11857.921074  -9137.714995 -22031.833812     78.856381                    
V 10  18580.301579 -20565.305317  -1170.307581       .005863                    
P 11  18297.289095   2243.921683  19129.722410    307.561439                    
V 11   9724.934390  22688.862689 -11676.203023       .027739                    
P 13  18478.691044  -7750.090792 -17474.860509     41.960288                    
V 13  21269.397763   5743.270202  20087.663551       .024452                    
P 14    -82.746934  14905.903447  22055.486830    -19.285663                    
V 14 -27256.009386  -5277.829962   3432.370139       .006240                    
P 15  -2858.443940  23212.211840 -12392.822115    567.339075                    
V 15  -6542.123679 -14422.922821 -26229.344011       .059229                    
P 16   5806.563902  15336.325006 -20791.683080     26.935581                    
V 16 -18196.164667  19430.355654   9301.961421       .018334                    
P 17   1923.967174 -15114.619545  21734.599131     52.636457                    
V 17  27176.435211   5102.876681   1060.379425       .077593                    
P 18 -18150.706246  19169.252670    -64.290669   -221.258763                    
V 18  -2136.519557  -2285.265392 -31915.039742      -.021232                    
P 19  25747.883561   6586.404345   -105.516203    -21.295551                    
V 19   -951.328921   2728.047132 -31675.837850       .009564                    
P 20  20444.373671  -8002.870576  14837.459146    -32.528816                    
V 20 -10660.300060  15886.487183  23153.505490       .008517                    
P 21  -8861.079155  16685.436870 -18421.368044      6.294680                    
V 21  -8816.148305 -22105.319051 -16250.714351       .033492                    
P 22  -8987.664285  21861.511508  12274.158128     69.333536                    
V 22 -12349.232405   9419.237332 -26151.667116       .027536                    
P 23  25542.026068   -534.538683  -7631.721584    150.116171                    
V 23   8932.375899   4038.675899  29809.700168      -.014344                    
P 24   5630.673328 -20537.676826  15955.789197     86.245090                    
V 24   7500.232914  18566.750311  21816.492925       .030387                    
P 25   9749.631721  24598.946269   1830.175654   -101.261470                    
V 25  -3641.651128   -379.355962  31527.827327       .373015                    
P 26 -24832.156773  -8976.081028  -5400.246412    -39.829933                    
V 26   6392.854340     21.362193 -31028.251066      -.087439                    
P 27   7098.987358 -16874.909893 -18516.767495     36.237636                    
V 27  11255.671420  22287.916032 -15854.466116       .017221                    
P 28  10951.941075 -22172.454560   9470.660170     33.124647                    
V 28   9896.066814  -6919.418356 -28796.852030      -.005964                    
P 29 -23088.749153  -9981.854507  -8674.588418    536.313259                    
V 29  11387.525159    300.807741 -29556.493068       .118314                    
P 30 -19627.093117  16205.337570   7100.491877     25.405427                    
V 30   3344.086396  -9409.947541  29692.895676       .020959                    
EOF
